CCSDS_OEM_VERS = 2.0  
CREATION_DATE  = 2026-02-27T09:26:40
ORIGINATOR     = ESOC/OPS-GFA                            
 
 



META_START
OBJECT_NAME          = LISA                                    
OBJECT_ID            = -1000                                   
CENTER_NAME          = SUN                     
REF_FRAME            = EME2000 
TIME_SYSTEM          = TCB
START_TIME           = 2036-12-23T00:00:30.346418            
STOP_TIME            = 2047-09-06T04:22:38.143162            
INTERPOLATION        = HERMITE                                 
INTERPOLATION_DEGREE = 7                                       
META_STOP

2039-01-02T10:36:21.669361     2.00973511359875686e+07    1.35967513178910285e+08    5.86735172098802850e+07   -2.95229014536493786e+01    3.71043361421202222e+00    1.87422926049753547e+00   -7.99349647310153936e-07   -5.40642113574046321e-06   -2.33300776982321402e-06
2039-01-03T06:52:08.013549     1.79417128172026053e+07    1.36223783223516405e+08    5.88040239414886683e+07   -2.95780802328691586e+01    3.31571719285740185e+00    1.70387023375643198e+00   -7.13488900689973238e-07   -5.41548997589932434e-06   -2.33771308996508692e-06
2039-01-04T03:07:54.357737     1.57822779630685784e+07    1.36451236999251276e+08    5.89220915089321062e+07   -2.96269914524570375e+01    2.92038125083060240e+00    1.53318612003730337e+00   -6.27512448553193802e-07   -5.42340664200802287e-06   -2.34192072184813331e-06
2039-01-04T23:23:40.701926     1.36195040584003013e+07    1.36649832389138997e+08    5.90276975266557559e+07   -2.96696273440789504e+01    2.52450986426509072e+00    1.36221324264391375e+00   -5.41438713086874187e-07   -5.43017037470315213e-06   -2.34563016942572733e-06
2039-01-05T19:39:27.046114     1.14538490999437310e+07    1.36819533432506859e+08    5.91208222693212330e+07   -2.97059814829149822e+01    2.12818715525824365e+00    1.19098795698036186e+00   -4.55286107112277932e-07   -5.43578067443091244e-06   -2.34884104920270727e-06
2039-01-06T15:55:13.390303     9.28577150255661830e+06    1.36960310313076824e+08    5.92014486675040796e+07   -2.97360487868284551e+01    1.73149727270256637e+00    1.01954664224576619e+00   -3.69073030031298597e-07   -5.44023730647214764e-06   -2.35155309244720857e-06
2039-01-07T12:10:59.734491     7.11573000633613765e+06    1.37072139342672855e+08    5.92695623014847264e+07   -2.97598255152383828e+01    1.33452437295106741e+00    8.47925693054447649e-01   -2.82817863745535283e-07   -5.44354030045610324e-06   -2.35376614501724192e-06
2039-01-08T08:26:46.078679     4.94418358306358382e+06    1.37155002946021527e+08    5.93251513955191150e+07   -2.97773092676934681e+01    9.37352600717226814e-01    6.76161511155000561e-01   -1.96538968556453636e-07   -5.44568994443294920e-06   -2.35548016483202964e-06
2039-01-09T04:42:32.422868     2.77159134033669904e+06    1.37208889652124703e+08    5.93682068149748445e+07   -2.97884989821457644e+01    5.40066070610271787e-01    5.04290497421595152e-01   -1.10254679031225582e-07   -5.44668677337600138e-06   -2.35669521693244037e-06
2039-01-10T00:58:18.767056     5.98412421759653836e+05    1.37233794097681195e+08    5.93987220687189475e+07   -2.97933949329222436e+01    1.42748849706173964e-01    3.32349044290910278e-01   -2.39832998486220338e-08   -5.44653155225227899e-06   -2.35741146619036722e-06
2039-01-10T21:14:05.111246    -1.57489409843884036e+06    1.37229717048035920e+08    5.94166933191431984e+07   -2.97919987283924144e+01   -2.54515058444972020e-01    1.60373528818052780e-01    6.22568983746489857e-08   -5.44522525360950288e-06   -2.35762916764485478e-06
2039-01-11T17:29:51.455434    -3.74786932798943669e+06    1.37196665441134155e+08    5.94221194022130072e+07   -2.97843133083301410e+01   -6.51641727974699769e-01   -1.15996934751629865e-02    1.48447683289926588e-07   -5.44276902965043575e-06   -2.35734865445196107e-06
2039-01-12T13:45:37.799623    -5.92005467799689248e+06    1.37134652459958732e+08    5.94150018599258438e+07   -2.97703429409678932e+01   -1.04854732261444639e+00   -1.83534293786204117e-01    2.34570865059754763e-07   -5.43916417872062326e-06   -2.35657032341694524e-06
2039-01-13T09:52:31.357675    -8.07514140509053040e+06    1.37044466527795315e+08    5.93955338737220690e+07   -2.97502638684713681e+01   -1.44225273927906561e+00   -3.54139113219535395e-01    3.19980234406873427e-07   -5.43445172984736322e-06   -2.35530606638208164e-06
2039-01-14T05:59:24.915728    -1.02285502926990241e+07    1.36925784341979027e+08    5.93637155343412012e+07   -2.97240035950299628e+01   -1.83557605054609230e+00   -5.24634663572588256e-01    4.05287362699629055e-07   -5.42861111900976395e-06   -2.35355253556679049e-06
2039-01-15T02:06:18.473782    -1.23798340400510058e+07    1.36778636552482307e+08    5.93195560471916124e+07   -2.96915701630891249e+01   -2.22843564261314153e+00   -6.94985543799608640e-01    4.90474612500920804e-07   -5.42164459330203012e-06   -2.35131054348792535e-06
2039-01-15T22:13:12.031835    -1.45285459437520076e+07    1.36603059662361473e+08    5.92630671567199603e+07   -2.96529728908889787e+01   -2.62075007039496688e+00   -8.65156414300797705e-01    5.75524386544908137e-07   -5.41355456991167510e-06   -2.34858097665858789e-06
2039-01-16T18:20:05.589888    -1.66742400162887387e+07    1.36399096059479594e+08    5.91942631612190679e+07   -2.96082223692107860e+01   -3.01243807073049741e+00   -1.03511200266904591e+00    6.60419137065730736e-07   -5.40434365976671745e-06   -2.34536480590969871e-06
2039-01-17T14:26:59.147941    -1.88164710918170400e+07    1.36166794025979400e+08    5.91131609178891033e+07   -2.95573304574901492e+01   -3.40341857711833695e+00   -1.20481711010408099e+00    7.45141373951161267e-07   -5.39401468620723048e-06   -2.34166309454697631e-06
2039-01-18T10:33:52.705994    -2.09547949219638631e+07    1.35906207730128855e+08    5.90197798401777446e+07   -2.95003102793822976e+01   -3.79361073562436379e+00   -1.37423661833901778e+00    8.29673671723439372e-07   -5.38257069868787476e-06   -2.33747700434654413e-06
2039-01-19T06:40:46.264047    -2.30887682643524744e+07    1.35617397205160379e+08    5.89141418894242644e+07   -2.94371762178643372e+01   -4.18293392160135369e+00   -1.54333549692265093e+00    9.13998675346018481e-07   -5.37001498149983019e-06   -2.33280779938376432e-06
2039-01-20T02:47:39.822101    -2.52179489665604196e+07    1.35300428319725007e+08    5.87962715628324375e+07   -2.93679439099594610e+01   -4.57130775686046320e+00   -1.71207881070085599e+00    9.98099104858479700e-07   -5.35635105753237449e-06   -2.32765684770449935e-06
2039-01-20T22:54:33.380154    -2.73418960482197180e+07    1.34955372744582504e+08    5.86661958797972128e+07   -2.92926302411680872e+01   -4.95865212693455515e+00   -1.88043172734043673e+00    1.08195775883574819e-06   -5.34158268704361988e-06   -2.32202562082513390e-06
2039-01-21T19:01:26.938206    -2.94601697839684300e+07    1.34582307920148343e+08    5.85239443686100841e+07   -2.92112533396908383e+01   -5.34488719807313384e+00   -2.04835952473877336e+00    1.16555751667803987e-06   -5.32571386147929517e-06   -2.31591569107864488e-06
2039-01-22T15:08:20.496260    -3.15723317899635546e+07    1.34181317029519275e+08    5.83695490555680767e+07   -2.91238325705283678e+01   -5.72993343360891050e+00   -2.21582759816262920e+00    1.24888133972353807e-06   -5.30874879230467061e-06   -2.30932872679124469e-06
2039-01-23T11:15:14.054313    -3.36779451166642010e+07    1.33752488981597900e+08    5.82030444585112855e+07   -2.90303885295429751e+01   -6.11371160933580704e+00   -2.38280146695946859e+00    1.33191227118765491e-06   -5.29069189484275166e-06   -2.30226648528672472e-06
2039-01-24T07:22:07.612366    -3.57765743505947441e+07    1.33295918408937827e+08    5.80244675868138820e+07   -2.89309430375669443e+01   -6.49614282753834082e+00   -2.54924678068462063e+00    1.41463343493842222e-06   -5.27154776724509788e-06   -2.29473080377353914e-06
2039-01-25T03:29:01.170419    -3.78677857277971804e+07    1.32811705684930488e+08    5.78338579498535097e+07   -2.88255191346426116e+01   -6.87714852931221277e+00   -2.71512932448765731e+00    1.49702803308051362e-06   -5.25132116428383410e-06   -2.28672358797914189e-06
2039-01-25T23:35:54.728472    -3.99511472616824508e+07    1.32299956964954570e+08    5.76312575759840310e+07   -2.87141410744790839e+01   -7.25665050481608453e+00   -2.88041502360134283e+00    1.57907934238373226e-06   -5.23001696639531264e-06   -2.27824679871856789e-06
2039-01-26T19:39:59.670124    -4.20214068048477843e+07    1.31762071250358760e+08    5.74172243527122214e+07   -2.85971143313977478e+01   -7.63369282511982661e+00   -3.04468731296133344e+00    1.66058107102081232e-06   -5.20769418984191953e-06   -2.26932410901716398e-06
2039-01-27T15:44:04.611777    -4.40829993947511539e+07    1.31197005328179523e+08    5.71913469816781953e+07   -2.84742129335454024e+01   -8.00908404903939086e+00   -3.20829824392188456e+00    1.74170822125370527e-06   -5.18430961780335497e-06   -2.25993840102561853e-06
2039-01-28T11:48:09.553428    -4.61355016320942566e+07    1.30604881266919121e+08    5.69536744574939311e+07   -2.83454645290880762e+01   -8.38274767307307478e+00   -3.37121444953777294e+00    1.82244456087058383e-06   -5.15986897190397529e-06   -2.25009200422132089e-06
2039-01-29T07:52:14.495080    -4.81784921159433872e+07    1.29985826605593085e+08    5.67042581609230563e+07   -2.82108979361521044e+01   -8.75460761235440010e+00   -3.53340273346626343e+00    1.90277393591656061e-06   -5.13437812372093247e-06   -2.23978731371837602e-06
2039-01-30T03:56:19.436731    -5.02115515632131547e+07    1.29339974359481767e+08    5.64431518624561653e+07   -2.80705431366491105e+01   -9.12458821225271599e+00   -3.69483007504620486e+00    1.98268028473520611e-06   -5.10784311518374797e-06   -2.22902679923387520e-06
